start=new Date('2023-01-20T00:00:00.000Z').valueOf();
sats=[{"PERIAPSIS":"546.370","LAUNCH_DATE":"2021-05-26","SITE":"AFETR","CENTER_NAME":"EARTH","MEAN_ELEMENT_THEORY":"SGP4","OBJECT_ID":"2021-044AS","FILE":"3754973","TLE_LINE2":"2 48678  53.0511 212.1995 0001231  88.7044 271.4086 15.06397169 91259","ELEMENT_SET_NO":"999","SEMIMAJOR_AXIS":"6925.357","DECAY_DATE":null,"RA_OF_ASC_NODE":"212.1995","MEAN_ANOMALY":"271.4086","EPOCH":"2023-01-19T14:01:43.020480","COUNTRY_CODE":"US","CLASSIFICATION_TYPE":"U","MEAN_MOTION_DDOT":"0.0000000000000","BSTAR":"0.00005091200000","OBJECT_NAME":"STARLINK-2615","EPHEMERIS_TYPE":"0","RCS_SIZE":"LARGE","MEAN_MOTION":"15.06397169","REF_FRAME":"TEME","ECCENTRICITY":"0.00012310","INCLINATION":"53.0511","PERIOD":"95.592","OBJECT_TYPE":"PAYLOAD","GP_ID":"223495878","NORAD_CAT_ID":"48678","TLE_LINE1":"1 48678U 21044AS  23019.58452570  .00000477  00000-0  50912-4 0  9994","TIME_SYSTEM":"UTC","ARG_OF_PERICENTER":"88.7044","MEAN_MOTION_DOT":"0.00000477","APOAPSIS":"548.075","REV_AT_EPOCH":"9125"},{"INCLINATION":"53.0531","ECCENTRICITY":"0.00014860","REF_FRAME":"TEME","MEAN_MOTION":"15.06396808","TLE_LINE1":"1 48679U 21044AT  23019.58083903  .00000550  00000-0  55833-4 0  9994","NORAD_CAT_ID":"48679","GP_ID":"223503445","OBJECT_TYPE":"PAYLOAD","PERIOD":"95.592","APOAPSIS":"548.252","REV_AT_EPOCH":"9209","MEAN_MOTION_DOT":"0.00000550","ARG_OF_PERICENTER":"95.4789","TIME_SYSTEM":"UTC","SITE":"AFETR","LAUNCH_DATE":"2021-05-26","PERIAPSIS":"546.194","FILE":"3755082","TLE_LINE2":"2 48679  53.0531 212.2208 0001486  95.4789 264.6370 15.06396808 92095","OBJECT_ID":"2021-044AT","MEAN_ELEMENT_THEORY":"SGP4","CENTER_NAME":"EARTH","MEAN_ANOMALY":"264.6370","EPOCH":"2023-01-19T13:56:24.492192","DECAY_DATE":null,"RA_OF_ASC_NODE":"212.2208","ELEMENT_SET_NO":"999","SEMIMAJOR_AXIS":"6925.358","RCS_SIZE":"LARGE","EPHEMERIS_TYPE":"0","OBJECT_NAME":"STARLINK-2648","BSTAR":"0.00005583300000","MEAN_MOTION_DDOT":"0.0000000000000","CLASSIFICATION_TYPE":"U","COUNTRY_CODE":"US"},{"CENTER_NAME":"EARTH","FILE":"3754973","TLE_LINE2":"2 48680  53.0527 212.2308 0001210 109.0609 251.0511 15.06375394 91252","MEAN_ELEMENT_THEORY":"SGP4","OBJECT_ID":"2021-044AU","LAUNCH_DATE":"2021-05-26","PERIAPSIS":"546.451","SITE":"AFETR","COUNTRY_CODE":"US","CLASSIFICATION_TYPE":"U","OBJECT_NAME":"STARLINK-2649","MEAN_MOTION_DDOT":"0.0000000000000","BSTAR":"0.00049665000000","RCS_SIZE":"LARGE","EPHEMERIS_TYPE":"0","SEMIMAJOR_AXIS":"6925.424","ELEMENT_SET_NO":"999","RA_OF_ASC_NODE":"212.2308","DECAY_DATE":null,"EPOCH":"2023-01-19T13:51:06.445152","MEAN_ANOMALY":"251.0511","PERIOD":"95.594","OBJECT_TYPE":"PAYLOAD","GP_ID":"223496877","TLE_LINE1":"1 48680U 21044AU  23019.57715793  .00007119  00000-0  49665-3 0  9997","NORAD_CAT_ID":"48680","MEAN_MOTION":"15.06375394","REF_FRAME":"TEME","INCLINATION":"53.0527","ECCENTRICITY":"0.00012100","TIME_SYSTEM":"UTC","ARG_OF_PERICENTER":"109.0609","MEAN_MOTION_DOT":"0.00007119","REV_AT_EPOCH":"9125","APOAPSIS":"548.127"},{"MEAN_ANOMALY":"274.3525","EPOCH":"2023-01-19T17:00:53.653248","DECAY_DATE":null,"RA_OF_ASC_NODE":"181.8823","ELEMENT_SET_NO":"999","SEMIMAJOR_AXIS":"6925.362","EPHEMERIS_TYPE":"0","RCS_SIZE":"LARGE","BSTAR":"0.00009768200000","MEAN_MOTION_DDOT":"0.0000000000000","OBJECT_NAME":"STARLINK-2725","CLASSIFICATION_TYPE":"U","COUNTRY_CODE":"US","SITE":"AFETR","PERIAPSIS":"546.407","LAUNCH_DATE":"2021-05-26","OBJECT_ID":"2021-044AV","MEAN_ELEMENT_THEORY":"SGP4","TLE_LINE2":"2 48681  53.0521 181.8823 0001184  85.7599 274.3525 15.06395647 92581","FILE":"3755097","CENTER_NAME":"EARTH","REV_AT_EPOCH":"9258","APOAPSIS":"548.047","MEAN_MOTION_DOT":"0.00001174","ARG_OF_PERICENTER":"85.7599","TIME_SYSTEM":"UTC","ECCENTRICITY":"0.00011840","INCLINATION":"53.0521","REF_FRAME":"TEME","MEAN_MOTION":"15.06395647","NORAD_CAT_ID":"48681","TLE_LINE1":"1 48681U 21044AV  23019.70895432  .00001174  00000-0  97682-4 0  9990","GP_ID":"223503548","OBJECT_TYPE":"PAYLOAD","PERIOD":"95.592"},{"PERIOD":"95.592","OBJECT_TYPE":"PAYLOAD","GP_ID":"223496378","NORAD_CAT_ID":"48682","TLE_LINE1":"1 48682U 21044AW  23019.44078891  .00000865  00000-0  76943-4 0  9997","MEAN_MOTION":"15.06395329","REF_FRAME":"TEME","ECCENTRICITY":"0.00015730","INCLINATION":"53.0555","TIME_SYSTEM":"UTC","ARG_OF_PERICENTER":"105.1235","MEAN_MOTION_DOT":"0.00000865","APOAPSIS":"548.317","REV_AT_EPOCH":"9178","CENTER_NAME":"EARTH","MEAN_ELEMENT_THEORY":"SGP4","OBJECT_ID":"2021-044AW","TLE_LINE2":"2 48682  53.0555 173.0154 0001573 105.1235 254.9928 15.06395329 91784","FILE":"3754973","PERIAPSIS":"546.139","LAUNCH_DATE":"2021-05-26","SITE":"AFETR","COUNTRY_CODE":"US","CLASSIFICATION_TYPE":"U","BSTAR":"0.00007694300000","MEAN_MOTION_DDOT":"0.0000000000000","OBJECT_NAME":"STARLINK-2743","EPHEMERIS_TYPE":"0","RCS_SIZE":"LARGE","ELEMENT_SET_NO":"999","SEMIMAJOR_AXIS":"6925.363","RA_OF_ASC_NODE":"173.0154","DECAY_DATE":null,"EPOCH":"2023-01-19T10:34:44.161824","MEAN_ANOMALY":"254.9928"},{"ARG_OF_PERICENTER":"88.8304","TIME_SYSTEM":"UTC","APOAPSIS":"548.158","REV_AT_EPOCH":"9179","MEAN_MOTION_DOT":"0.00000006","MEAN_MOTION":"15.06389990","ECCENTRICITY":"0.00013190","INCLINATION":"53.0551","REF_FRAME":"TEME","OBJECT_TYPE":"PAYLOAD","PERIOD":"95.593","NORAD_CAT_ID":"48683","TLE_LINE1":"1 48683U 21044AX  23019.46289325  .00000006  00000-0  19274-4 0  9997","GP_ID":"223496630","RA_OF_ASC_NODE":"172.7639","DECAY_DATE":null,"ELEMENT_SET_NO":"999","SEMIMAJOR_AXIS":"6925.379","MEAN_ANOMALY":"271.2836","EPOCH":"2023-01-19T11:06:33.976800","CLASSIFICATION_TYPE":"U","COUNTRY_CODE":"US","EPHEMERIS_TYPE":"0","RCS_SIZE":"LARGE","MEAN_MOTION_DDOT":"0.0000000000000","BSTAR":"0.00001927400000","OBJECT_NAME":"STARLINK-2756","SITE":"AFETR","PERIAPSIS":"546.331","LAUNCH_DATE":"2021-05-26","MEAN_ELEMENT_THEORY":"SGP4","OBJECT_ID":"2021-044AX","FILE":"3754973","TLE_LINE2":"2 48683  53.0551 172.7639 0001319  88.8304 271.2836 15.06389990 91795","CENTER_NAME":"EARTH"},{"GP_ID":"223497377","NORAD_CAT_ID":"48684","TLE_LINE1":"1 48684U 21044AY  23019.55185375  .00000510  00000-0  53157-4 0  9996","PERIOD":"95.592","OBJECT_TYPE":"PAYLOAD","REF_FRAME":"TEME","ECCENTRICITY":"0.00009240","INCLINATION":"53.0543","MEAN_MOTION":"15.06394547","MEAN_MOTION_DOT":"0.00000510","APOAPSIS":"547.870","REV_AT_EPOCH":"9159","TIME_SYSTEM":"UTC","ARG_OF_PERICENTER":"92.3182","CENTER_NAME":"EARTH","OBJECT_ID":"2021-044AY","MEAN_ELEMENT_THEORY":"SGP4","TLE_LINE2":"2 48684  53.0543 187.7029 0000924  92.3182 267.7913 15.06394547 91599","FILE":"3754973","PERIAPSIS":"546.590","LAUNCH_DATE":"2021-05-26","SITE":"AFETR","BSTAR":"0.00005315700000","MEAN_MOTION_DDOT":"0.0000000000000","OBJECT_NAME":"STARLINK-2741","EPHEMERIS_TYPE":"0","RCS_SIZE":"LARGE","COUNTRY_CODE":"US","CLASSIFICATION_TYPE":"U","EPOCH":"2023-01-19T13:14:40.164000","MEAN_ANOMALY":"267.7913","SEMIMAJOR_AXIS":"6925.365","ELEMENT_SET_NO":"999","DECAY_DATE":null,"RA_OF_ASC_NODE":"187.7029"},{"ARG_OF_PERICENTER":"83.2343","TIME_SYSTEM":"UTC","APOAPSIS":"547.909","REV_AT_EPOCH":"9179","MEAN_MOTION_DOT":"0.00000352","MEAN_MOTION":"15.06392528","INCLINATION":"53.0529","ECCENTRICITY":"0.00009710","REF_FRAME":"TEME","OBJECT_TYPE":"PAYLOAD","PERIOD":"95.593","TLE_LINE1":"1 48685U 21044AZ  23019.43340198  .00000352  00000-0  42505-4 0  9999","NORAD_CAT_ID":"48685","GP_ID":"223495629","RA_OF_ASC_NODE":"172.9226","DECAY_DATE":null,"SEMIMAJOR_AXIS":"6925.371","ELEMENT_SET_NO":"999","MEAN_ANOMALY":"276.8756","EPOCH":"2023-01-19T10:24:05.931072","CLASSIFICATION_TYPE":"U","COUNTRY_CODE":"US","RCS_SIZE":"LARGE","EPHEMERIS_TYPE":"0","OBJECT_NAME":"STARLINK-2751","BSTAR":"0.00004250500000","MEAN_MOTION_DDOT":"0.0000000000000","SITE":"AFETR","LAUNCH_DATE":"2021-05-26","PERIAPSIS":"546.564","FILE":"3754973","TLE_LINE2":"2 48685  53.0529 172.9226 0000971  83.2343 276.8756 15.06392528 91794","OBJECT_ID":"2021-044AZ","MEAN_ELEMENT_THEORY":"SGP4","CENTER_NAME":"EARTH"},{"COUNTRY_CODE":"US","CLASSIFICATION_TYPE":"U","OBJECT_NAME":"STARLINK-2629","MEAN_MOTION_DDOT":"0.0000000000000","BSTAR":"0.00008493700000","RCS_SIZE":"LARGE","EPHEMERIS_TYPE":"0","ELEMENT_SET_NO":"999","SEMIMAJOR_AXIS":"6925.371","DECAY_DATE":null,"RA_OF_ASC_NODE":"177.5935","MEAN_ANOMALY":"276.4277","EPOCH":"2023-01-19T13:26:36.126240","CENTER_NAME":"EARTH","TLE_LINE2":"2 48686  53.0528 177.5935 0001230  83.6852 276.4277 15.06392624 91735","FILE":"3754973","OBJECT_ID":"2021-044BA","MEAN_ELEMENT_THEORY":"SGP4","LAUNCH_DATE":"2021-05-26","PERIAPSIS":"546.384","SITE":"AFETR","TIME_SYSTEM":"UTC","ARG_OF_PERICENTER":"83.6852","MEAN_MOTION_DOT":"0.00000984","REV_AT_EPOCH":"9173","APOAPSIS":"548.088","PERIOD":"95.593","OBJECT_TYPE":"PAYLOAD","GP_ID":"223495879","TLE_LINE1":"1 48686U 21044BA  23019.56014035  .00000984  00000-0  84937-4 0  9998","NORAD_CAT_ID":"48686","MEAN_MOTION":"15.06392624","REF_FRAME":"TEME","INCLINATION":"53.0528","ECCENTRICITY":"0.00012300"},{"ARG_OF_PERICENTER":"90.4461","TIME_SYSTEM":"UTC","REV_AT_EPOCH":"9185","APOAPSIS":"548.059","MEAN_MOTION_DOT":"-0.00000170","MEAN_MOTION":"15.06385466","ECCENTRICITY":"0.00011570","INCLINATION":"53.0543","REF_FRAME":"TEME","OBJECT_TYPE":"PAYLOAD","PERIOD":"95.593","NORAD_CAT_ID":"48687","TLE_LINE1":"1 48687U 21044BB  23019.40253513 -.00000170  00000-0  74521-5 0  9995","GP_ID":"223497130","RA_OF_ASC_NODE":"168.0134","DECAY_DATE":null,"ELEMENT_SET_NO":"999","SEMIMAJOR_AXIS":"6925.393","MEAN_ANOMALY":"269.6661","EPOCH":"2023-01-19T09:39:39.035232","CLASSIFICATION_TYPE":"U","COUNTRY_CODE":"US","EPHEMERIS_TYPE":"0","RCS_SIZE":"LARGE","BSTAR":"0.00000745210000","MEAN_MOTION_DDOT":"0.0000000000000","OBJECT_NAME":"STARLINK-2627","SITE":"AFETR","PERIAPSIS":"546.457","LAUNCH_DATE":"2021-05-26","OBJECT_ID":"2021-044BB","MEAN_ELEMENT_THEORY":"SGP4","TLE_LINE2":"2 48687  53.0543 168.0134 0001157  90.4461 269.6661 15.06385466 91859","FILE":"3754973","CENTER_NAME":"EARTH"}];
